OBJECT_NAME,OBJECT_ID,EPOCH,MEAN_MOTION,ECCENTRICITY,INCLINATION,RA_OF_ASC_NODE,ARG_OF_PERICENTER,MEAN_ANOMALY,EPHEMERIS_TYPE,CLASSIFICATION_TYPE,NORAD_CAT_ID,ELEMENT_SET_NO,REV_AT_EPOCH,BSTAR,MEAN_MOTION_DOT,MEAN_MOTION_DDOT
ONEWEB-0053,2020-008AC,2026-06-26T03:12:40.362336,13.10392605,.0001895,87.8821,34.5015,69.1183,291.0147,0,U,45157,999,30908,-.88967E-2,-.3093E-4,0
ONEWEB-0054,2020-008AD,2026-06-26T04:04:00.530976,13.10360871,.0001888,87.8838,34.4783,84.3363,275.7980,0,U,45158,999,30920,.57164E-2,.2008E-4,0
ONEWEB-0056,2020-008AE,2026-06-26T03:22:14.956032,13.10376372,.0002118,87.8831,34.4772,87.8397,272.2972,0,U,45159,999,30935,.67684E-3,.249E-5,0
ONEWEB-0057,2020-008AF,2026-06-26T03:47:04.563744,13.10378328,.000201,87.8827,34.4865,70.0094,290.1249,0,U,45160,999,30952,-.31356E-2,-.1082E-4,0
ONEWEB-0058,2020-008AG,2026-06-26T03:28:05.282112,13.10370617,.0001654,87.8818,34.4943,89.7380,270.3937,0,U,45161,999,30959,.1009E-2,.365E-5,0
ONEWEB-0059,2020-008AH,2026-06-26T03:22:38.488800,13.10380560,.0001885,87.8822,34.4938,78.3004,281.8335,0,U,45162,999,30949,-.56752E-2,-.1968E-4,0
ONEWEB-0062,2020-008AJ,2026-06-26T03:56:28.068000,13.10334701,.0001639,87.8831,34.4777,89.4422,270.6894,0,U,45163,999,30936,.19531E-1,.6832E-4,0
ONEWEB-0065,2020-008AK,2026-06-25T23:15:29.795904,13.10345631,.0002051,87.8832,34.5246,80.2468,279.8891,0,U,45164,999,30903,.11988E-1,.4198E-4,0
ONEWEB-0066,2020-020A,2026-06-26T01:45:43.259040,13.11418569,.0001653,87.8881,19.3019,85.3684,274.7633,0,U,45424,999,30384,.33579E-3,.132E-5,0
ONEWEB-0067,2020-020B,2026-06-26T02:40:11.644032,13.11422815,.0001877,87.8901,19.2176,81.9104,278.2237,0,U,45425,999,30390,-.50326E-4,-.5E-7,0
ONEWEB-0080,2020-020C,2026-06-26T02:39:37.833984,13.11414165,.000175,87.8892,19.2915,97.2751,262.8576,0,U,45426,999,30387,-.63046E-4,-.1E-6,0
ONEWEB-0090,2020-020D,2026-06-26T01:31:16.095936,13.11418043,.0001836,87.8893,19.3054,89.5126,270.6213,0,U,45427,999,30383,-.82701E-3,-.28E-5,0
ONEWEB-0061,2020-020E,2026-06-26T02:17:15.977184,13.11415883,.0001772,87.8889,19.2834,87.7169,272.4162,0,U,45428,999,30379,.15018E-2,.545E-5,0
ONEWEB-0081,2020-020F,2026-06-26T01:50:36.415968,13.11418438,.0001745,87.8887,19.2973,81.6669,278.4657,0,U,45429,999,30390,.80311E-3,.297E-5,0
ONEWEB-0069,2020-020G,2026-06-26T01:53:13.998336,13.11467644,.0001433,87.8883,19.2992,93.8757,266.2535,0,U,45430,999,30383,-.26206E-1,-.9273E-4,0
ONEWEB-0031,2020-020H,2026-06-26T02:44:18.455136,13.11414567,.000182,87.8877,19.2973,93.4712,266.6625,0,U,45431,999,30382,-.45498E-3,-.149E-5,0
ONEWEB-0027,2020-020J,2026-06-26T01:40:27.107616,13.17652383,.0002174,87.9134,4.0978,101.2750,258.8626,0,U,45432,999,30752,.31664E-4,.25E-6,0
ONEWEB-0064,2020-020K,2026-06-25T13:52:48.054144,13.11414814,.0001877,87.8881,19.3959,92.3119,267.8224,0,U,45433,999,30378,-.77081E-3,-.26E-5,0
ONEWEB-0018,2020-020L,2026-06-26T01:38:10.861728,13.11420325,.0001404,87.8886,19.2981,87.1039,273.0249,0,U,45434,999,30379,-.65033E-3,-.218E-5,0
ONEWEB-0083,2020-020M,2026-06-25T23:34:04.337760,13.11419009,.0001764,87.8892,19.3095,89.6554,270.4776,0,U,45435,999,30382,-.12294E-2,-.423E-5,0
ONEWEB-0095,2020-020N,2026-06-25T23:21:50.937408,13.11415240,.0002533,87.8888,19.3198,87.7577,272.3841,0,U,45436,999,30382,-.14088E-2,-.487E-5,0
ONEWEB-0092,2020-020P,2026-06-26T01:55:28.625088,13.11413240,.0002056,87.8890,19.2898,82.2896,277.8466,0,U,45437,999,30395,.1108E-2,.405E-5,0
ONEWEB-0085,2020-020Q,2026-06-25T23:33:40.616640,13.11418084,.0001844,87.8885,19.3156,87.9849,272.1490,0,U,45438,999,30382,-.11623E-2,-.399E-5,0
ONEWEB-0096,2020-020R,2026-06-25T23:36:17.794656,13.11416634,.0001964,87.8888,19.3119,88.4247,271.7106,0,U,45439,999,30381,-.10131E-2,-.346E-5,0
ONEWEB-0037,2020-020S,2026-06-26T02:09:17.856000,13.11913363,.000189,87.8902,19.2633,85.8867,274.2477,0,U,45440,999,30386,.18414E-2,.67E-5,0
ONEWEB-0042,2020-020T,2026-06-25T23:21:28.183104,13.11416841,.0001816,87.8889,19.3102,84.5328,275.6007,0,U,45441,999,30381,-.14667E-2,-.507E-5,0
ONEWEB-0098,2020-020U,2026-06-25T23:15:33.306336,13.11416628,.0001815,87.8889,19.3200,89.7826,270.3510,0,U,45442,999,30379,-.12128E-2,-.417E-5,0
ONEWEB-0055,2020-020V,2026-06-26T02:24:36.257760,13.11416438,.0001809,87.8889,19.2928,90.1243,270.0092,0,U,45443,999,30378,.97999E-3,.36E-5,0
ONEWEB-0093,2020-020W,2026-06-26T01:55:41.535840,13.11417812,.000173,87.8892,19.2899,74.0838,286.0481,0,U,45444,999,30384,.1193E-2,.436E-5,0
ONEWEB-0029,2020-020X,2026-06-25T15:35:32.165376,13.11413718,.0001662,87.8878,19.3840,81.4310,278.7006,0,U,45445,999,30376,.61948E-4,.35E-6,0
ONEWEB-0068,2020-020Y,2026-06-26T01:55:18.034176,13.11418062,.0001683,87.8889,19.2939,82.7187,277.4132,0,U,45446,999,30376,.11228E-2,.411E-5,0
